[
    {
        "Altitude(m)": 611965.2228457681,
        "Argument of Periapsis(deg)": 0.0,
        "Eccentricity": 0.0,
        "Inclination(deg)": 60.0,
        "Latitude(deg)": 59.14027520564444,
        "Longitude(deg)": 43.96966402459573,
        "Mean Anomaly(deg)": 81.8182,
        "RAAN(deg)": 70.0,
        "Satellite Name": "Test1 313",
        "Satellite Number": 313,
        "Semi-Major Axis(m)": 6980739.136638005,
        "Time(s)": 0
    },
    {
        "Altitude(m)": 611995.848842814,
        "Argument of Periapsis(deg)": 0.00010418945913296404,
        "Eccentricity": 0.0,
        "Inclination(deg)": 60.0,
        "Latitude(deg)": 59.28337699053048,
        "Longitude(deg)": 45.10302912833382,
        "Mean Anomaly(deg)": 82.43830614546182,
        "RAAN(deg)": 69.99957995086027,
        "Satellite Name": "Test1 313",
        "Satellite Number": 313,
        "Semi-Major Axis(m)": 6980739.136638005,
        "Time(s)": 10
    }
]